CCSDS_OMM_VERS = 2.0
CREATION_DATE  = 
ORIGINATOR     = 

OBJECT_NAME    = SL-3 R/B
OBJECT_ID      = 1982-079B
CENTER_NAME    = EARTH
REF_FRAME      = TEME
TIME_SYSTEM    = UTC
MEAN_ELEMENT_THEORY = SGP/SGP4

EPOCH          = 2026-03-17T14:33:59.786208
MEAN_MOTION    = 15.24916505
ECCENTRICITY   = .00253152
INCLINATION    = 81.1490
RA_OF_ASC_NODE = 183.7297
ARG_OF_PERICENTER = 138.5346
MEAN_ANOMALY   = 221.7814

EPHEMERIS_TYPE = 0
CLASSIFICATION_TYPE = U
NORAD_CAT_ID   = 13403
ELEMENT_SET_NO = 999
REV_AT_EPOCH   = 37890
BSTAR          = .18534079E-3
MEAN_MOTION_DOT = .4681E-4
MEAN_MOTION_DDOT = 0

CCSDS_OMM_VERS = 2.0
CREATION_DATE  = 
ORIGINATOR     = 

OBJECT_NAME    = SL-14 R/B
OBJECT_ID      = 1982-092B
CENTER_NAME    = EARTH
REF_FRAME      = TEME
TIME_SYSTEM    = UTC
MEAN_ELEMENT_THEORY = SGP/SGP4

EPOCH          = 2026-03-17T14:30:09.210528
MEAN_MOTION    = 14.86673823
ECCENTRICITY   = .00187598
INCLINATION    = 82.5679
RA_OF_ASC_NODE = 133.9967
ARG_OF_PERICENTER = 275.3110
MEAN_ANOMALY   = 245.3899

EPHEMERIS_TYPE = 0
CLASSIFICATION_TYPE = U
NORAD_CAT_ID   = 13553
ELEMENT_SET_NO = 999
REV_AT_EPOCH   = 33010
BSTAR          = .43905777E-4
MEAN_MOTION_DOT = .415E-5
MEAN_MOTION_DDOT = 0

CCSDS_OMM_VERS = 2.0
CREATION_DATE  = 
ORIGINATOR     = 

OBJECT_NAME    = SL-3 R/B
OBJECT_ID      = 1983-010B
CENTER_NAME    = EARTH
REF_FRAME      = TEME
TIME_SYSTEM    = UTC
MEAN_ELEMENT_THEORY = SGP/SGP4

EPOCH          = 2026-03-17T04:50:33.315936
MEAN_MOTION    = 15.46629379
ECCENTRICITY   = .00172676
INCLINATION    = 81.1067
RA_OF_ASC_NODE = 353.0368
ARG_OF_PERICENTER = 26.5324
MEAN_ANOMALY   = 333.6801

EPHEMERIS_TYPE = 0
CLASSIFICATION_TYPE = U
NORAD_CAT_ID   = 13819
ELEMENT_SET_NO = 999
REV_AT_EPOCH   = 35910
BSTAR          = .24242377E-3
MEAN_MOTION_DOT = .12185E-3
MEAN_MOTION_DDOT = 0

CCSDS_OMM_VERS = 2.0
CREATION_DATE  = 
ORIGINATOR     = 

OBJECT_NAME    = SL-3 R/B
OBJECT_ID      = 1983-075B
CENTER_NAME    = EARTH
REF_FRAME      = TEME
TIME_SYSTEM    = UTC
MEAN_ELEMENT_THEORY = SGP/SGP4

EPOCH          = 2026-03-17T13:21:56.864160
MEAN_MOTION    = 15.38607366
ECCENTRICITY   = .00209221
INCLINATION    = 97.6135
RA_OF_ASC_NODE = 81.4328
ARG_OF_PERICENTER = 196.3387
MEAN_ANOMALY   = 163.7186

EPHEMERIS_TYPE = 0
CLASSIFICATION_TYPE = U
NORAD_CAT_ID   = 14208
ELEMENT_SET_NO = 999
REV_AT_EPOCH   = 33136
BSTAR          = .22284846E-3
MEAN_MOTION_DOT = .847E-4
MEAN_MOTION_DDOT = 0

CCSDS_OMM_VERS = 2.0
CREATION_DATE  = 
ORIGINATOR     = 

OBJECT_NAME    = COSMOS 1536
OBJECT_ID      = 1984-013A
CENTER_NAME    = EARTH
REF_FRAME      = TEME
TIME_SYSTEM    = UTC
MEAN_ELEMENT_THEORY = SGP/SGP4

EPOCH          = 2026-03-17T08:05:12.073056
MEAN_MOTION    = 15.23928442
ECCENTRICITY   = .00125142
INCLINATION    = 82.5415
RA_OF_ASC_NODE = 100.2465
ARG_OF_PERICENTER = 252.6996
MEAN_ANOMALY   = 107.2872

EPHEMERIS_TYPE = 0
CLASSIFICATION_TYPE = U
NORAD_CAT_ID   = 14699
ELEMENT_SET_NO = 999
REV_AT_EPOCH   = 27378
BSTAR          = .21661899E-3
MEAN_MOTION_DOT = .5277E-4
MEAN_MOTION_DDOT = 0

CCSDS_OMM_VERS = 2.0
CREATION_DATE  = 
ORIGINATOR     = 

OBJECT_NAME    = SL-14 R/B
OBJECT_ID      = 1984-027B
CENTER_NAME    = EARTH
REF_FRAME      = TEME
TIME_SYSTEM    = UTC
MEAN_ELEMENT_THEORY = SGP/SGP4

EPOCH          = 2026-03-17T10:29:10.076352
MEAN_MOTION    = 14.85984691
ECCENTRICITY   = .00168006
INCLINATION    = 82.5397
RA_OF_ASC_NODE = 237.7453
ARG_OF_PERICENTER = 311.0116
MEAN_ANOMALY   = 48.9647

EPHEMERIS_TYPE = 0
CLASSIFICATION_TYPE = U
NORAD_CAT_ID   = 14820
ELEMENT_SET_NO = 999
REV_AT_EPOCH   = 24878
BSTAR          = .51044395E-4
MEAN_MOTION_DOT = .471E-5
MEAN_MOTION_DDOT = 0

CCSDS_OMM_VERS = 2.0
CREATION_DATE  = 
ORIGINATOR     = 

OBJECT_NAME    = SL-8 R/B
OBJECT_ID      = 1985-006B
CENTER_NAME    = EARTH
REF_FRAME      = TEME
TIME_SYSTEM    = UTC
MEAN_ELEMENT_THEORY = SGP/SGP4

EPOCH          = 2026-03-17T10:38:10.009824
MEAN_MOTION    = 14.37788963
ECCENTRICITY   = .00181201
INCLINATION    = 74.0436
RA_OF_ASC_NODE = 246.8796
ARG_OF_PERICENTER = 162.5998
MEAN_ANOMALY   = 218.7308

EPHEMERIS_TYPE = 0
CLASSIFICATION_TYPE = U
NORAD_CAT_ID   = 15483
ELEMENT_SET_NO = 999
REV_AT_EPOCH   = 15514
BSTAR          = .111973E-3
MEAN_MOTION_DOT = .312E-5
MEAN_MOTION_DDOT = 0

CCSDS_OMM_VERS = 2.0
CREATION_DATE  = 
ORIGINATOR     = 

OBJECT_NAME    = SL-12 R/B(2)
OBJECT_ID      = 1985-042D
CENTER_NAME    = EARTH
REF_FRAME      = TEME
TIME_SYSTEM    = UTC
MEAN_ELEMENT_THEORY = SGP/SGP4

EPOCH          = 2026-03-17T10:36:04.951008
MEAN_MOTION    = 14.21984598
ECCENTRICITY   = .00330039
INCLINATION    = 71.1066
RA_OF_ASC_NODE = 71.3492
ARG_OF_PERICENTER = 115.3580
MEAN_ANOMALY   = 354.4961

EPHEMERIS_TYPE = 0
CLASSIFICATION_TYPE = U
NORAD_CAT_ID   = 15772
ELEMENT_SET_NO = 999
REV_AT_EPOCH   = 11549
BSTAR          = .35418677E-4
MEAN_MOTION_DOT = .31E-6
MEAN_MOTION_DDOT = 0

CCSDS_OMM_VERS = 2.0
CREATION_DATE  = 
ORIGINATOR     = 

OBJECT_NAME    = SL-14 R/B
OBJECT_ID      = 1985-069B
CENTER_NAME    = EARTH
REF_FRAME      = TEME
TIME_SYSTEM    = UTC
MEAN_ELEMENT_THEORY = SGP/SGP4

EPOCH          = 2026-03-17T13:17:44.565792
MEAN_MOTION    = 14.86442193
ECCENTRICITY   = .00191951
INCLINATION    = 82.5297
RA_OF_ASC_NODE = 17.5394
ARG_OF_PERICENTER = 161.7124
MEAN_ANOMALY   = 198.4788

EPHEMERIS_TYPE = 0
CLASSIFICATION_TYPE = U
NORAD_CAT_ID   = 15945
ELEMENT_SET_NO = 999
REV_AT_EPOCH   = 17400
BSTAR          = .51674525E-4
MEAN_MOTION_DOT = .482E-5
MEAN_MOTION_DDOT = 0

CCSDS_OMM_VERS = 2.0
CREATION_DATE  = 
ORIGINATOR     = 

OBJECT_NAME    = SL-16 R/B
OBJECT_ID      = 1985-097B
CENTER_NAME    = EARTH
REF_FRAME      = TEME
TIME_SYSTEM    = UTC
MEAN_ELEMENT_THEORY = SGP/SGP4

EPOCH          = 2026-03-17T13:29:27.392640
MEAN_MOTION    = 14.16598990
ECCENTRICITY   = .00096623
INCLINATION    = 71.0014
RA_OF_ASC_NODE = 123.9808
ARG_OF_PERICENTER = 250.0528
MEAN_ANOMALY   = 272.7720

EPHEMERIS_TYPE = 0
CLASSIFICATION_TYPE = U
NORAD_CAT_ID   = 16182
ELEMENT_SET_NO = 999
REV_AT_EPOCH   = 8834
BSTAR          = .12519567E-3
MEAN_MOTION_DOT = .202E-5
MEAN_MOTION_DDOT = 0

CCSDS_OMM_VERS = 2.0
CREATION_DATE  = 
ORIGINATOR     = 

OBJECT_NAME    = SL-14 R/B
OBJECT_ID      = 1986-006B
CENTER_NAME    = EARTH
REF_FRAME      = TEME
TIME_SYSTEM    = UTC
MEAN_ELEMENT_THEORY = SGP/SGP4

EPOCH          = 2026-03-17T11:04:52.813632
MEAN_MOTION    = 14.86826328
ECCENTRICITY   = .00751708
INCLINATION    = 82.5237
RA_OF_ASC_NODE = 252.4201
ARG_OF_PERICENTER = 246.5341
MEAN_ANOMALY   = 112.7962

EPHEMERIS_TYPE = 0
CLASSIFICATION_TYPE = U
NORAD_CAT_ID   = 16496
ELEMENT_SET_NO = 999
REV_AT_EPOCH   = 15036
BSTAR          = .69891957E-4
MEAN_MOTION_DOT = .681E-5
MEAN_MOTION_DDOT = 0

CCSDS_OMM_VERS = 2.0
CREATION_DATE  = 
ORIGINATOR     = 

OBJECT_NAME    = COSMOS 1743
OBJECT_ID      = 1986-034A
CENTER_NAME    = EARTH
REF_FRAME      = TEME
TIME_SYSTEM    = UTC
MEAN_ELEMENT_THEORY = SGP/SGP4

EPOCH          = 2026-03-17T09:49:24.295872
MEAN_MOTION    = 15.59145866
ECCENTRICITY   = .00020189
INCLINATION    = 82.5282
RA_OF_ASC_NODE = 65.7235
ARG_OF_PERICENTER = 222.8768
MEAN_ANOMALY   = 137.2331

EPHEMERIS_TYPE = 0
CLASSIFICATION_TYPE = U
NORAD_CAT_ID   = 16719
ELEMENT_SET_NO = 999
REV_AT_EPOCH   = 18145
BSTAR          = .39959231E-3
MEAN_MOTION_DOT = .31344E-3
MEAN_MOTION_DDOT = 0

