SL-3 R/B                
1 13403U 82079B   26076.60694197  .00004681  00000+0  18534-3 0  9992
2 13403  81.1490 183.7297 0025315 138.5346 221.7814 15.24916505378909
SL-14 R/B               
1 13553U 82092B   26076.60427327  .00000415  00000+0  43906-4 0  9995
2 13553  82.5679 133.9967 0018759 275.3110 245.3899 14.86673823330108
SL-3 R/B                
1 13819U 83010B   26076.20177449  .00012185  00000+0  24242-3 0  9992
2 13819  81.1067 353.0368 0017267  26.5324 333.6801 15.46629379359104
SL-3 R/B                
1 14208U 83075B   26076.55690815  .00008470  00000+0  22285-3 0  9998
2 14208  97.6135  81.4328 0020922 196.3387 163.7186 15.38607366331369
COSMOS 1536             
1 14699U 84013A   26076.33694529  .00005277  00000+0  21662-3 0  9997
2 14699  82.5415 100.2465 0012514 252.6996 107.2872 15.23928442273780
SL-14 R/B               
1 14820U 84027B   26076.43692218  .00000471  00000+0  51044-4 0  9991
2 14820  82.5397 237.7453 0016800 311.0116  48.9647 14.85984691248782
SL-8 R/B                
1 15483U 85006B   26076.44317141  .00000312  00000+0  11197-3 0  9993
2 15483  74.0436 246.8796 0018120 162.5998 218.7308 14.37788963155142
SL-12 R/B(2)            
1 15772U 85042D   26076.44172397  .00000031  00000+0  35419-4 0  9998
2 15772  71.1066  71.3492 0033003 115.3580 354.4961 14.21984598115496
SL-14 R/B               
1 15945U 85069B   26076.55398803  .00000482  00000+0  51675-4 0  9995
2 15945  82.5297  17.5394 0019195 161.7124 198.4788 14.86442193174004
SL-16 R/B               
1 16182U 85097B   26076.56212260  .00000202  00000+0  12520-3 0  9998
2 16182  71.0014 123.9808 0009662 250.0528 272.7720 14.16598990 88341
SL-14 R/B               
1 16496U 86006B   26076.46172238  .00000681  00000+0  69892-4 0  9992
2 16496  82.5237 252.4201 0075170 246.5341 112.7962 14.86826328150367
COSMOS 1743             
1 16719U 86034A   26076.40930898  .00031344  00000+0  39959-3 0  9999
2 16719  82.5282  65.7235 0002018 222.8768 137.2331 15.59145866181456
